{"type": "FeatureCollection", "features": [ {"type": "Feature", "properties": {"norad_id": 34634, "name": "COSMOS 2251 DEB", "group": "cosmos-2251-debris", "lat": 10.091738036712883, "lon": 51.00429248236958, "alt_km": 734.9867109940578, "timestamp": "2025-12-05T19:30:25.961835+00:00", "meta": {"OBJECT_NAME": "COSMOS 2251 DEB", "OBJECT_ID": "1993-036XF", "EPOCH": "2025-12-05T04:45:24.046272", "MEAN_MOTION": 14.55622098, "ECCENTRICITY": 0.00446091, "INCLINATION": 74.0531, "RA_OF_ASC_NODE": 49.2502, "ARG_OF_PERICENTER": 158.7845, "MEAN_ANOMALY": 232.7445, "EPHEMERIS_TYPE": 0, "CLASSIFICATION_TYPE": "U", "NORAD_CAT_ID": 34634, "ELEMENT_SET_NO": 999, "REV_AT_EPOCH": 88672, "BSTAR": 0.00076602662, "MEAN_MOTION_DOT": 3.361e-05, "MEAN_MOTION_DDOT": 0}, "tle": {"line1": "1 34634U 93036XF  25339.19819498  .00003361  00000+0  76603-3 0  9999", "line2": "2 34634  74.0531  49.2502 0044609 158.7845 232.7445 14.55622098886725"}}, "geometry": {"type": "Point", "coordinates": [51.00429248236958, 10.091738036712883]}}, {"type": "Feature", "properties": {"norad_id": 34635, "name": "COSMOS 2251 DEB", "group": "cosmos-2251-debris", "lat": -71.07655646008558, "lon": 27.544315020732704, "alt_km": 685.8864916748025, "timestamp": "2025-12-05T19:30:25.961846+00:00", "meta": {"OBJECT_NAME": "COSMOS 2251 DEB", "OBJECT_ID": "1993-036XG", "EPOCH": "2025-12-05T06:55:33.057120", "MEAN_MOTION": 14.68090906, "ECCENTRICITY": 0.00293226, "INCLINATION": 74.046, "RA_OF_ASC_NODE": 85.112, "ARG_OF_PERICENTER": 156.3832, "MEAN_ANOMALY": 234.206, "EPHEMERIS_TYPE": 0, "CLASSIFICATION_TYPE": "U", "NORAD_CAT_ID": 34635, "ELEMENT_SET_NO": 999, "REV_AT_EPOCH": 73110, "BSTAR": 0.0026974042, "MEAN_MOTION_DOT": 0.00015598, "MEAN_MOTION_DDOT": 0}, "tle": {"line1": "1 34635U 93036XG  25339.28857705  .00015598  00000+0  26974-2 0  9993", "line2": "2 34635  74.0460  85.1120 0029322 156.3832 234.2060 14.68090906731109"}}, "geometry": {"type": "Point", "coordinates": [27.544315020732704, -71.07655646008558]}}, {"type": "Feature", "properties": {"norad_id": 34637, "name": "COSMOS 2251 DEB", "group": "cosmos-2251-debris", "lat": -44.339802413752906, "lon": 98.13537764160449, "alt_km": 721.0879224451965, "timestamp": "2025-12-05T19:30:25.961857+00:00", "meta": {"OBJECT_NAME": "COSMOS 2251 DEB", "OBJECT_ID": "1993-036XJ", "EPOCH": "2025-12-03T08:38:20.779008", "MEAN_MOTION": 14.59934348, "ECCENTRICITY": 0.0050664, "INCLINATION": 74.0477, "RA_OF_ASC_NODE": 119.0417, "ARG_OF_PERICENTER": 191.6838, "MEAN_ANOMALY": 194.9044, "EPHEMERIS_TYPE": 0, "CLASSIFICATION_TYPE": "U", "NORAD_CAT_ID": 34637, "ELEMENT_SET_NO": 999, "REV_AT_EPOCH": 88390, "BSTAR": 0.0016283, "MEAN_MOTION_DOT": 7.923e-05, "MEAN_MOTION_DDOT": 0}, "tle": {"line1": "1 34637U 93036XJ  25337.35996272  .00007923  00000+0  16283-2 0  9999", "line2": "2 34637  74.0477 119.0417 0050664 191.6838 194.9044 14.59934348883903"}}, "geometry": {"type": "Point", "coordinates": [98.13537764160449, -44.339802413752906]}}, {"type": "Feature", "properties": {"norad_id": 34641, "name": "COSMOS 2251 DEB", "group": "cosmos-2251-debris", "lat": 33.19527217667936, "lon": -96.08343931301307, "alt_km": 725.5812900915944, "timestamp": "2025-12-05T19:30:25.961868+00:00", "meta": {"OBJECT_NAME": "COSMOS 2251 DEB", "OBJECT_ID": "1993-036XN", "EPOCH": "2025-12-05T07:24:00.015264", "MEAN_MOTION": 14.51906587, "ECCENTRICITY": 0.00176959, "INCLINATION": 73.839, "RA_OF_ASC_NODE": 95.8144, "ARG_OF_PERICENTER": 13.0244, "MEAN_ANOMALY": 16.2566, "EPHEMERIS_TYPE": 0, "CLASSIFICATION_TYPE": "U", "NORAD_CAT_ID": 34641, "ELEMENT_SET_NO": 999, "REV_AT_EPOCH": 88148, "BSTAR": 0.0021170176, "MEAN_MOTION_DOT": 8.535e-05, "MEAN_MOTION_DDOT": 0}, "tle": {"line1": "1 34641U 93036XN  25339.30833351  .00008535  00000+0  21170-2 0  9990", "line2": "2 34641  73.8390  95.8144 0017695  13.0244  16.2566 14.51906587881484"}}, "geometry": {"type": "Point", "coordinates": [-96.08343931301307, 33.19527217667936]}}, {"type": "Feature", "properties": {"norad_id": 34642, "name": "COSMOS 2251 DEB", "group": "cosmos-2251-debris", "lat": 66.27919288381199, "lon": 131.04977938507062, "alt_km": 825.3941022555691, "timestamp": "2025-12-05T19:30:25.961879+00:00", "meta": {"OBJECT_NAME": "COSMOS 2251 DEB", "OBJECT_ID": "1993-036XP", "EPOCH": "2025-12-04T17:49:40.252800", "MEAN_MOTION": 13.98938003, "ECCENTRICITY": 0.02079642, "INCLINATION": 74.005, "RA_OF_ASC_NODE": 353.6532, "ARG_OF_PERICENTER": 175.3412, "MEAN_ANOMALY": 308.0257, "EPHEMERIS_TYPE": 0, "CLASSIFICATION_TYPE": "U", "NORAD_CAT_ID": 34642, "ELEMENT_SET_NO": 999, "REV_AT_EPOCH": 85181, "BSTAR": 0.0019636986, "MEAN_MOTION_DOT": 3.389e-05, "MEAN_MOTION_DDOT": 0}, "tle": {"line1": "1 34642U 93036XP  25338.74282700  .00003389  00000+0  19637-2 0  9991", "line2": "2 34642  74.0050 353.6532 0207964 175.3412 308.0257 13.98938003851817"}}, "geometry": {"type": "Point", "coordinates": [131.04977938507062, 66.27919288381199]}}, {"type": "Feature", "properties": {"norad_id": 34671, "name": "COSMOS 2251 DEB", "group": "cosmos-2251-debris", "lat": -55.34055295929862, "lon": -7.856885454430727, "alt_km": 669.8843255857219, "timestamp": "2025-12-05T19:30:25.961889+00:00", "meta": {"OBJECT_NAME": "COSMOS 2251 DEB", "OBJECT_ID": "1993-036XR", "EPOCH": "2025-12-04T13:13:00.352992", "MEAN_MOTION": 14.66694104, "ECCENTRICITY": 0.0012043, "INCLINATION": 74.0249, "RA_OF_ASC_NODE": 150.1005, "ARG_OF_PERICENTER": 228.9796, "MEAN_ANOMALY": 188.3711, "EPHEMERIS_TYPE": 0, "CLASSIFICATION_TYPE": "U", "NORAD_CAT_ID": 34671, "ELEMENT_SET_NO": 999, "REV_AT_EPOCH": 88177, "BSTAR": 0.0035848, "MEAN_MOTION_DOT": 0.00020003, "MEAN_MOTION_DDOT": 0}, "tle": {"line1": "1 34671U 93036XR  25338.55069853  .00020003  00000+0  35848-2 0  9998", "line2": "2 34671  74.0249 150.1005 0012043 228.9796 188.3711 14.66694104881775"}}, "geometry": {"type": "Point", "coordinates": [-7.856885454430727, -55.34055295929862]}}, {"type": "Feature", "properties": {"norad_id": 34672, "name": "COSMOS 2251 DEB", "group": "cosmos-2251-debris", "lat": 72.76419617836679, "lon": 70.97190545044774, "alt_km": 755.9056475954421, "timestamp": "2025-12-05T19:30:25.961899+00:00", "meta": {"OBJECT_NAME": "COSMOS 2251 DEB", "OBJECT_ID": "1993-036XS", "EPOCH": "2025-12-05T07:40:08.255136", "MEAN_MOTION": 14.36389631, "ECCENTRICITY": 0.00234864, "INCLINATION": 74.0334, "RA_OF_ASC_NODE": 319.2231, "ARG_OF_PERICENTER": 32.8465, "MEAN_ANOMALY": 33.8253, "EPHEMERIS_TYPE": 0, "CLASSIFICATION_TYPE": "U", "NORAD_CAT_ID": 34672, "ELEMENT_SET_NO": 999, "REV_AT_EPOCH": 65071, "BSTAR": 0.00045419479, "MEAN_MOTION_DOT": 1.308e-05, "MEAN_MOTION_DDOT": 0}, "tle": {"line1": "1 34672U 93036XS  25339.31953999  .00001308  00000+0  45419-3 0  9990", "line2": "2 34672  74.0334 319.2231 0023486  32.8465  33.8253 14.36389631650714"}}, "geometry": {"type": "Point", "coordinates": [70.97190545044774, 72.76419617836679]}}, {"type": "Feature", "properties": {"norad_id": 34678, "name": "COSMOS 2251 DEB", "group": "cosmos-2251-debris", "lat": 69.57943581953259, "lon": 68.5283553791988, "alt_km": 767.1564615653233, "timestamp": "2025-12-05T19:30:25.961910+00:00", "meta": {"OBJECT_NAME": "COSMOS 2251 DEB", "OBJECT_ID": "1993-036XY", "EPOCH": "2025-12-05T06:16:29.732736", "MEAN_MOTION": 14.30063103, "ECCENTRICITY": 0.00242753, "INCLINATION": 74.0382, "RA_OF_ASC_NODE": 19.2889, "ARG_OF_PERICENTER": 70.8617, "MEAN_ANOMALY": 48.9165, "EPHEMERIS_TYPE": 0, "CLASSIFICATION_TYPE": "U", "NORAD_CAT_ID": 34678, "ELEMENT_SET_NO": 999, "REV_AT_EPOCH": 87272, "BSTAR": 5.3289366e-05, "MEAN_MOTION_DOT": 1.12e-06, "MEAN_MOTION_DDOT": 0}, "tle": {"line1": "1 34678U 93036XY  25339.26145524  .00000112  00000+0  53289-4 0  9994", "line2": "2 34678  74.0382  19.2889 0024275  70.8617  48.9165 14.30063103872720"}}, "geometry": {"type": "Point", "coordinates": [68.5283553791988, 69.57943581953259]}}, {"type": "Feature", "properties": {"norad_id": 34680, "name": "COSMOS 2251 DEB", "group": "cosmos-2251-debris", "lat": -38.869424511273955, "lon": 129.74707969595485, "alt_km": 696.9159798579103, "timestamp": "2025-12-05T19:30:25.961920+00:00", "meta": {"OBJECT_NAME": "COSMOS 2251 DEB", "OBJECT_ID": "1993-036YA", "EPOCH": "2025-12-04T21:14:20.827392", "MEAN_MOTION": 14.60485882, "ECCENTRICITY": 0.0007053, "INCLINATION": 74.0418, "RA_OF_ASC_NODE": 144.8522, "ARG_OF_PERICENTER": 239.7459, "MEAN_ANOMALY": 243.1564, "EPHEMERIS_TYPE": 0, "CLASSIFICATION_TYPE": "U", "NORAD_CAT_ID": 34680, "ELEMENT_SET_NO": 999, "REV_AT_EPOCH": 88213, "BSTAR": 0.0023967, "MEAN_MOTION_DOT": 0.00011619, "MEAN_MOTION_DDOT": 0}, "tle": {"line1": "1 34680U 93036YA  25338.88496328  .00011619  00000+0  23967-2 0  9997", "line2": "2 34680  74.0418 144.8522 0007053 239.7459 243.1564 14.60485882882130"}}, "geometry": {"type": "Point", "coordinates": [129.74707969595485, -38.869424511273955]}}, {"type": "Feature", "properties": {"norad_id": 34681, "name": "COSMOS 2251 DEB", "group": "cosmos-2251-debris", "lat": -12.946522585361048, "lon": -59.68124863831477, "alt_km": 606.8416172343741, "timestamp": "2025-12-05T19:30:25.961931+00:00", "meta": {"OBJECT_NAME": "COSMOS 2251 DEB", "OBJECT_ID": "1993-036YB", "EPOCH": "2025-12-05T00:26:59.961984", "MEAN_MOTION": 14.82913148, "ECCENTRICITY": 0.0025711, "INCLINATION": 74.0627, "RA_OF_ASC_NODE": 305.6533, "ARG_OF_PERICENTER": 3.6401, "MEAN_ANOMALY": 65.7759, "EPHEMERIS_TYPE": 0, "CLASSIFICATION_TYPE": "U", "NORAD_CAT_ID": 34681, "ELEMENT_SET_NO": 999, "REV_AT_EPOCH": 89156, "BSTAR": 0.0030425506, "MEAN_MOTION_DOT": 0.00024878, "MEAN_MOTION_DDOT": 0}, "tle": {"line1": "1 34681U 93036YB  25339.01874956  .00024878  00000+0  30426-2 0  9990", "line2": "2 34681  74.0627 305.6533 0025711   3.6401  65.7759 14.82913148891564"}}, "geometry": {"type": "Point", "coordinates": [-59.68124863831477, -12.946522585361048]}}]}